{"type":"FeatureCollection","features":[{"type":"Feature","properties":{"name":"Spielgebiet","generatedBy":"scripts/build-area.mjs","generatedAt":"2026-08-31","stationCount":73,"paddingKm":2},"geometry":{"type":"Polygon","coordinates":[[[4.522774803889253,52.19742281047859],[4.9837486589981665,52.26100063346748],[4.990280658235408,52.26239803578087],[4.996098286556658,52.26469121882708],[5.0627575928897475,52.29832767729761],[5.066621458312801,52.300674089606744],[5.069712176062729,52.30341578314581],[5.071923726806192,52.30645884549628],[5.073180155750403,52.30969902115112],[5.073438196466385,52.31302527813518],[5.0726887810906724,52.31632360962234],[4.995851138911418,52.51535717137497],[4.994017988203935,52.518633611924386],[4.9911871324776556,52.52163566861142],[4.987463268788318,52.52425210971307],[4.982984253864678,52.52638597289085],[4.977916004736133,52.527958166903694],[4.972446345990669,52.52891041135726],[4.664353407443916,52.56304015492074],[4.65881039612976,52.563323450208806],[4.653278163736594,52.56297082146585],[4.647952470526287,52.56199474679987],[4.643021742470287,52.56042976392643],[4.638660383851954,52.55833124388116],[4.63502259419683,52.55577342570158],[4.63223691073081,52.55284678270906],[4.504665613275142,52.38320595131566],[4.502531685854742,52.37913331820371],[4.455217196479332,52.22875280110847],[4.454697911253535,52.224948917299585],[4.455500726243797,52.221163573645924],[4.4575891600598325,52.21756723362996],[4.46086889195011,52.214321809633354],[4.46519205598734,52.21157338204873],[4.470363927249925,52.20944563623851],[4.502537593122827,52.19904936200612],[4.507338136544527,52.19781685892096],[4.512418230954806,52.197123342149645],[4.517618247802275,52.196990602429416],[4.522774803889253,52.19742281047859]]]}}]}
